ONEWEB-0444             
1 51638U 22012S   23324.44063827 -.00000252  00000+0 -75920-3 0  9994
2 51638  87.8937 222.9101 0001631  65.1087 295.0209 13.10367859 86264
ONEWEB-0445             
1 51639U 22012T   23324.46178242 -.00000074  00000+0 -24904-3 0  9993
2 51639  87.8924 222.8917 0001957  80.4887 279.6461 13.10374754 87557
ONEWEB-0446             
1 51640U 22012U   23324.43902741 -.00000463  00000+0 -13637-2 0  9993
2 51640  87.8930 222.9019 0001602  79.7105 280.4203 13.10371627 86257
ONEWEB-0448             
1 51641U 22012V   23324.44389368 -.00000640  00000+0 -18692-2 0  9992
2 51641  87.8930 222.9024 0001584  64.9040 295.2252 13.10373184 87515
ONEWEB-0449             
1 51642U 22012W   23324.44875882 -.00000841  00000+0 -24453-2 0  9999
2 51642  87.8935 222.9054 0001908  69.2074 290.9257 13.10374060 86238
ONEWEB-0451             
1 51643U 22012X   23324.57441856  .00000059  00000+0  11834-3 0  9993
2 51643  87.9227 192.6380 0001604  69.1001 291.0302 13.17651155 89923
ONEWEB-0452             
1 51644U 22012Y   23324.57230685 -.00000252  00000+0 -68246-3 0  9996
2 51644  87.9236 192.6647 0002170  64.8647 295.2709 13.17650809 89930
ONEWEB-0455             
1 51645U 22012Z   23324.59179035  .00000285  00000+0  11975-3 0  9991
2 51645  87.5367 176.8454 0015462 311.2448  48.7410 14.22642894 92507
